[{"OBJECT_NAME":"STARLINK-31815","OBJECT_ID":"2024-093V","EPOCH":"2025-08-14T11:29:51.962496","MEAN_MOTION":15.27587385,"ECCENTRICITY":0.0001552,"INCLINATION":43.0006,"RA_OF_ASC_NODE":299.2503,"ARG_OF_PERICENTER":265.217,"MEAN_ANOMALY":94.8504,"EPHEMERIS_TYPE":0,"CLASSIFICATION_TYPE":"U","NORAD_CAT_ID":59801,"ELEMENT_SET_NO":999,"REV_AT_EPOCH":7100,"BSTAR":2.5648e-7,"MEAN_MOTION_DOT":-2.55e-6,"MEAN_MOTION_DDOT":0},{"OBJECT_NAME":"STARLINK-31814","OBJECT_ID":"2024-093W","EPOCH":"2025-08-14T13:35:25.975104","MEAN_MOTION":15.27610403,"ECCENTRICITY":0.000124,"INCLINATION":43.0018,"RA_OF_ASC_NODE":299.0267,"ARG_OF_PERICENTER":264.3178,"MEAN_ANOMALY":95.7532,"EPHEMERIS_TYPE":0,"CLASSIFICATION_TYPE":"U","NORAD_CAT_ID":59802,"ELEMENT_SET_NO":999,"REV_AT_EPOCH":7101,"BSTAR":0.00011195,"MEAN_MOTION_DOT":2.823e-5,"MEAN_MOTION_DDOT":0},{"OBJECT_NAME":"STARLINK-31794","OBJECT_ID":"2024-093X","EPOCH":"2025-08-14T05:29:53.924640","MEAN_MOTION":15.27579706,"ECCENTRICITY":8.26e-5,"INCLINATION":43.0008,"RA_OF_ASC_NODE":300.8136,"ARG_OF_PERICENTER":283.1385,"MEAN_ANOMALY":76.9374,"EPHEMERIS_TYPE":0,"CLASSIFICATION_TYPE":"U","NORAD_CAT_ID":59803,"ELEMENT_SET_NO":999,"REV_AT_EPOCH":7103,"BSTAR":1.925e-5,"MEAN_MOTION_DOT":2.68e-6,"MEAN_MOTION_DDOT":0},{"OBJECT_NAME":"STARLINK-31824","OBJECT_ID":"2024-093Y","EPOCH":"2025-08-14T11:40:58.329408","MEAN_MOTION":15.2758035,"ECCENTRICITY":0.0001064,"INCLINATION":43.0029,"RA_OF_ASC_NODE":299.3089,"ARG_OF_PERICENTER":267.2064,"MEAN_ANOMALY":92.8666,"EPHEMERIS_TYPE":0,"CLASSIFICATION_TYPE":"U","NORAD_CAT_ID":59804,"ELEMENT_SET_NO":999,"REV_AT_EPOCH":7100,"BSTAR":-1.4513e-5,"MEAN_MOTION_DOT":-6.61e-6,"MEAN_MOTION_DDOT":0},{"OBJECT_NAME":"STARLINK-31947","OBJECT_ID":"2024-097A","EPOCH":"2025-08-14T10:37:25.088736","MEAN_MOTION":15.27572932,"ECCENTRICITY":9.59e-5,"INCLINATION":43.0034,"RA_OF_ASC_NODE":4.5629,"ARG_OF_PERICENTER":259.5574,"MEAN_ANOMALY":100.517,"EPHEMERIS_TYPE":0,"CLASSIFICATION_TYPE":"U","NORAD_CAT_ID":59835,"ELEMENT_SET_NO":999,"REV_AT_EPOCH":7022,"BSTAR":8.9575e-5,"MEAN_MOTION_DOT":2.203e-5,"MEAN_MOTION_DDOT":0},{"OBJECT_NAME":"STARLINK-31929","OBJECT_ID":"2024-097B","EPOCH":"2025-08-14T02:09:49.923360","MEAN_MOTION":15.27578088,"ECCENTRICITY":0.0001337,"INCLINATION":43.0001,"RA_OF_ASC_NODE":7.0758,"ARG_OF_PERICENTER":261.3227,"MEAN_ANOMALY":98.7474,"EPHEMERIS_TYPE":0,"CLASSIFICATION_TYPE":"U","NORAD_CAT_ID":59836,"ELEMENT_SET_NO":999,"REV_AT_EPOCH":7016,"BSTAR":4.0995e-5,"MEAN_MOTION_DOT":8.66e-6,"MEAN_MOTION_DDOT":0},{"OBJECT_NAME":"STARLINK-31927","OBJECT_ID":"2024-097C","EPOCH":"2025-08-14T11:03:18.915840","MEAN_MOTION":15.2760156,"ECCENTRICITY":0.000156,"INCLINATION":42.9996,"RA_OF_ASC_NODE":4.6956,"ARG_OF_PERICENTER":273.4632,"MEAN_ANOMALY":86.6041,"EPHEMERIS_TYPE":0,"CLASSIFICATION_TYPE":"U","NORAD_CAT_ID":59837,"ELEMENT_SET_NO":999,"REV_AT_EPOCH":7022,"BSTAR":-9.0315e-5,"MEAN_MOTION_DOT":-2.748e-5,"MEAN_MOTION_DDOT":0},{"OBJECT_NAME":"STARLINK-31855","OBJECT_ID":"2024-097D","EPOCH":"2025-08-14T10:31:51.585600","MEAN_MOTION":15.27565705,"ECCENTRICITY":0.0001119,"INCLINATION":43.0033,"RA_OF_ASC_NODE":4.5211,"ARG_OF_PERICENTER":259.5945,"MEAN_ANOMALY":100.478,"EPHEMERIS_TYPE":0,"CLASSIFICATION_TYPE":"U","NORAD_CAT_ID":59838,"ELEMENT_SET_NO":999,"REV_AT_EPOCH":7022,"BSTAR":9.7576e-5,"MEAN_MOTION_DOT":2.423e-5,"MEAN_MOTION_DDOT":0},{"OBJECT_NAME":"STARLINK-31887","OBJECT_ID":"2024-097E","EPOCH":"2025-08-14T10:06:08.462592","MEAN_MOTION":15.27593817,"ECCENTRICITY":0.0001107,"INCLINATION":43.0012,"RA_OF_ASC_NODE":5.2547,"ARG_OF_PERICENTER":261.7016,"MEAN_ANOMALY":98.371,"EPHEMERIS_TYPE":0,"CLASSIFICATION_TYPE":"U","NORAD_CAT_ID":59839,"ELEMENT_SET_NO":999,"REV_AT_EPOCH":7021,"BSTAR":5.6656e-5,"MEAN_MOTION_DOT":1.298e-5,"MEAN_MOTION_DDOT":0},{"OBJECT_NAME":"STARLINK-31925","OBJECT_ID":"2024-097F","EPOCH":"2025-08-14T09:44:34.445472","MEAN_MOTION":15.29112609,"ECCENTRICITY":0.0001776,"INCLINATION":43.0018,"RA_OF_ASC_NODE":5.1418,"ARG_OF_PERICENTER":312.3,"MEAN_ANOMALY":47.7702,"EPHEMERIS_TYPE":0,"CLASSIFICATION_TYPE":"U","NORAD_CAT_ID":59840,"ELEMENT_SET_NO":999,"REV_AT_EPOCH":7021,"BSTAR":0.00062949,"MEAN_MOTION_DOT":0.00017933,"MEAN_MOTION_DDOT":0},{"OBJECT_NAME":"STARLINK-31852","OBJECT_ID":"2024-097G","EPOCH":"2025-08-14T09:34:14.890080","MEAN_MOTION":15.27614139,"ECCENTRICITY":0.0001093,"INCLINATION":43.0029,"RA_OF_ASC_NODE":358.161,"ARG_OF_PERICENTER":290.5836,"MEAN_ANOMALY":69.4899,"EPHEMERIS_TYPE":0,"CLASSIFICATION_TYPE":"U","NORAD_CAT_ID":59841,"ELEMENT_SET_NO":999,"REV_AT_EPOCH":7029,"BSTAR":-0.00027807,"MEAN_MOTION_DOT":-7.914e-5,"MEAN_MOTION_DDOT":0},{"OBJECT_NAME":"STARLINK-31906","OBJECT_ID":"2024-097H","EPOCH":"2025-08-14T11:14:25.300896","MEAN_MOTION":15.27574482,"ECCENTRICITY":0.0001531,"INCLINATION":43.0025,"RA_OF_ASC_NODE":4.7579,"ARG_OF_PERICENTER":283.1769,"MEAN_ANOMALY":76.8911,"EPHEMERIS_TYPE":0,"CLASSIFICATION_TYPE":"U","NORAD_CAT_ID":59842,"ELEMENT_SET_NO":999,"REV_AT_EPOCH":7022,"BSTAR":8.5758e-5,"MEAN_MOTION_DOT":2.098e-5,"MEAN_MOTION_DDOT":0},{"OBJECT_NAME":"STARLINK-31857","OBJECT_ID":"2024-097J","EPOCH":"2025-08-14T10:22:36.483744","MEAN_MOTION":15.27575477,"ECCENTRICITY":9.95e-5,"INCLINATION":43.0004,"RA_OF_ASC_NODE":4.4748,"ARG_OF_PERICENTER":260.3416,"MEAN_ANOMALY":99.7323,"EPHEMERIS_TYPE":0,"CLASSIFICATION_TYPE":"U","NORAD_CAT_ID":59843,"ELEMENT_SET_NO":999,"REV_AT_EPOCH":7022,"BSTAR":4.9728e-5,"MEAN_MOTION_DOT":1.106e-5,"MEAN_MOTION_DDOT":0},{"OBJECT_NAME":"STARLINK-31851","OBJECT_ID":"2024-097K","EPOCH":"2025-08-14T10:42:57.868704","MEAN_MOTION":15.27582939,"ECCENTRICITY":0.0001384,"INCLINATION":43.0045,"RA_OF_ASC_NODE":4.589,"ARG_OF_PERICENTER":259.4042,"MEAN_ANOMALY":100.6654,"EPHEMERIS_TYPE":0,"CLASSIFICATION_TYPE":"U","NORAD_CAT_ID":59844,"ELEMENT_SET_NO":999,"REV_AT_EPOCH":7022,"BSTAR":0.00014955,"MEAN_MOTION_DOT":3.856e-5,"MEAN_MOTION_DDOT":0},{"OBJECT_NAME":"STARLINK-31903","OBJECT_ID":"2024-097L","EPOCH":"2025-08-14T09:19:27.411744","MEAN_MOTION":15.27575023,"ECCENTRICITY":0.0001002,"INCLINATION":43.0003,"RA_OF_ASC_NODE":358.0842,"ARG_OF_PERICENTER":266.9042,"MEAN_ANOMALY":93.1694,"EPHEMERIS_TYPE":0,"CLASSIFICATION_TYPE":"U","NORAD_CAT_ID":59845,"ELEMENT_SET_NO":999,"REV_AT_EPOCH":7029,"BSTAR":2.0472e-5,"MEAN_MOTION_DOT":3.01e-6,"MEAN_MOTION_DDOT":0},{"OBJECT_NAME":"STARLINK-31922","OBJECT_ID":"2024-097M","EPOCH":"2025-08-14T10:28:09.599808","MEAN_MOTION":15.27580365,"ECCENTRICITY":0.0001101,"INCLINATION":43.0016,"RA_OF_ASC_NODE":4.5035,"ARG_OF_PERICENTER":267.4146,"MEAN_ANOMALY":92.658,"EPHEMERIS_TYPE":0,"CLASSIFICATION_TYPE":"U","NORAD_CAT_ID":59846,"ELEMENT_SET_NO":999,"REV_AT_EPOCH":7022,"BSTAR":3.3629e-5,"MEAN_MOTION_DOT":6.63e-6,"MEAN_MOTION_DDOT":0},{"OBJECT_NAME":"STARLINK-31889","OBJECT_ID":"2024-097N","EPOCH":"2025-08-14T10:13:34.913856","MEAN_MOTION":15.27566128,"ECCENTRICITY":0.0001052,"INCLINATION":43.0036,"RA_OF_ASC_NODE":5.2949,"ARG_OF_PERICENTER":285.3184,"MEAN_ANOMALY":74.7551,"EPHEMERIS_TYPE":0,"CLASSIFICATION_TYPE":"U","NORAD_CAT_ID":59847,"ELEMENT_SET_NO":999,"REV_AT_EPOCH":7021,"BSTAR":9.7267e-6,"MEAN_MOTION_DOT":6.0e-8,"MEAN_MOTION_DDOT":0}]
