STARLINK-31815          
1 59801U 24093V   25226.47907364 -.00000255  00000+0  25648-6 0  9991
2 59801  43.0006 299.2503 0001552 265.2170  94.8504 15.27587385 71003
STARLINK-31814          
1 59802U 24093W   25226.56627286  .00002823  00000+0  11195-3 0  9995
2 59802  43.0018 299.0267 0001240 264.3178  95.7532 15.27610403 71014
STARLINK-31794          
1 59803U 24093X   25226.22909635  .00000268  00000+0  19250-4 0  9992
2 59803  43.0008 300.8136 0000826 283.1385  76.9374 15.27579706 71035
STARLINK-31824          
1 59804U 24093Y   25226.48678622 -.00000661  00000+0 -14513-4 0  9996
2 59804  43.0029 299.3089 0001064 267.2064  92.8666 15.27580350 71005
STARLINK-31947          
1 59835U 24097A   25226.44265149  .00002203  00000+0  89575-4 0  9998
2 59835  43.0034   4.5629 0000959 259.5574 100.5170 15.27572932 70220
STARLINK-31929          
1 59836U 24097B   25226.09016115  .00000866  00000+0  40995-4 0  9993
2 59836  43.0001   7.0758 0001337 261.3227  98.7474 15.27578088 70169
STARLINK-31927          
1 59837U 24097C   25226.46063560 -.00002748  00000+0 -90315-4 0  9995
2 59837  42.9996   4.6956 0001560 273.4632  86.6041 15.27601560 70221
STARLINK-31855          
1 59838U 24097D   25226.43879150  .00002423  00000+0  97576-4 0  9997
2 59838  43.0033   4.5211 0001119 259.5945 100.4780 15.27565705 70226
STARLINK-31887          
1 59839U 24097E   25226.42093128  .00001298  00000+0  56656-4 0  9993
2 59839  43.0012   5.2547 0001107 261.7016  98.3710 15.27593817 70217
STARLINK-31925          
1 59840U 24097F   25226.40595423  .00017933  00000+0  62949-3 0  9992
2 59840  43.0018   5.1418 0001776 312.3000  47.7702 15.29112609 70216
STARLINK-31852          
1 59841U 24097G   25226.39878345 -.00007914  00000+0 -27807-3 0  9992
2 59841  43.0029 358.1610 0001093 290.5836  69.4899 15.27614139 70299
STARLINK-31906          
1 59842U 24097H   25226.46834839  .00002098  00000+0  85758-4 0  9997
2 59842  43.0025   4.7579 0001531 283.1769  76.8911 15.27574482 70220
STARLINK-31857          
1 59843U 24097J   25226.43236671  .00001106  00000+0  49728-4 0  9991
2 59843  43.0004   4.4748 0000995 260.3416  99.7323 15.27575477 70228
STARLINK-31851          
1 59844U 24097K   25226.44650311  .00003856  00000+0  14955-3 0  9991
2 59844  43.0045   4.5890 0001384 259.4042 100.6654 15.27582939 70220
STARLINK-31903          
1 59845U 24097L   25226.38851171  .00000301  00000+0  20472-4 0  9996
2 59845  43.0003 358.0842 0001002 266.9042  93.1694 15.27575023 70292
STARLINK-31922          
1 59846U 24097M   25226.43622222  .00000663  00000+0  33629-4 0  9995
2 59846  43.0016   4.5035 0001101 267.4146  92.6580 15.27580365 70221
STARLINK-31889          
1 59847U 24097N   25226.42609854  .00000006  00000+0  97267-5 0  9991
2 59847  43.0036   5.2949 0001052 285.3184  74.7551 15.27566128 70211
